SL-3 R/B                
1 13403U 82079B   25343.26573713  .00007922  00000+0  32729-3 0  9993
2 13403  81.1473 299.7555 0026967 110.1527 250.2610 15.23524591363922
SL-14 R/B               
1 13553U 82092B   25343.19106601  .00000748  00000+0  81469-4 0  9999
2 13553  82.5688 226.0304 0019001 239.6808 238.7982 14.86549856315486
SL-3 R/B                
1 13819U 83010B   25343.07654072  .00016743  00000+0  37311-3 0  9990
2 13819  81.1042 113.0898 0017359   3.9108 356.2267 15.43304161343959
SL-3 R/B                
1 14208U 83075B   25343.20442413  .00013609  00000+0  38701-3 0  9995
2 14208  97.6108 339.5692 0022348 188.0668 172.0219 15.36023692316257
COSMOS 1536             
1 14699U 84013A   25343.06006347  .00007030  00000+0  30180-3 0  9992
2 14699  82.5455 197.8137 0013367 239.9466 120.0445 15.22455565258826
SL-14 R/B               
1 14820U 84027B   25343.25575163  .00000981  00000+0  10969-3 0  9992
2 14820  82.5410 329.8237 0016385 273.4802  86.4540 14.85869076234202
SL-8 R/B                
1 15483U 85006B   25343.27203480  .00000494  00000+0  17279-3 0  9998
2 15483  74.0466  67.5147 0018529   0.6277  59.5302 14.37718384141036
SL-12 R/B(2)            
1 15772U 85042D   25343.30941177  .00000313  00000+0  16236-3 0  9997
2 15772  71.1086 278.6666 0037677 266.5572 208.3200 14.21950538101545
SL-14 R/B               
1 15945U 85069B   25343.06609251  .00000947  00000+0  10442-3 0  9991
2 15945  82.5264 110.1563 0019959 129.9088 230.3887 14.86317253159376
SL-16 R/B               
1 16182U 85097B   25343.32686407  .00000153  00000+0  10083-3 0  9993
2 16182  71.0030 330.7883 0006464  16.3240  82.6145 14.16582234 74439
SL-14 R/B               
1 16496U 86006B   25343.26729151  .00001172  00000+0  12248-3 0  9996
2 16496  82.5264 344.8189 0075881 211.4454 148.2216 14.86665322135772
COSMOS 1743             
1 16719U 86034A   25343.23723942  .00035069  00000+0  58344-3 0  9993
2 16719  82.5347 168.2291 0004677 269.0451  91.0265 15.51868676166194
