CCSDS_OMM_VERS = 2.0
CREATION_DATE  = 
ORIGINATOR     = 

OBJECT_NAME    = SL-3 R/B
OBJECT_ID      = 1982-079B
CENTER_NAME    = EARTH
REF_FRAME      = TEME
TIME_SYSTEM    = UTC
MEAN_ELEMENT_THEORY = SGP/SGP4

EPOCH          = 2025-12-09T06:22:39.688032
MEAN_MOTION    = 15.23524591
ECCENTRICITY   = .0026967
INCLINATION    = 81.1473
RA_OF_ASC_NODE = 299.7555
ARG_OF_PERICENTER = 110.1527
MEAN_ANOMALY   = 250.2610

EPHEMERIS_TYPE = 0
CLASSIFICATION_TYPE = U
NORAD_CAT_ID   = 13403
ELEMENT_SET_NO = 999
REV_AT_EPOCH   = 36392
BSTAR          = .32729202E-3
MEAN_MOTION_DOT = .7922E-4
MEAN_MOTION_DDOT = 0

CCSDS_OMM_VERS = 2.0
CREATION_DATE  = 
ORIGINATOR     = 

OBJECT_NAME    = SL-14 R/B
OBJECT_ID      = 1982-092B
CENTER_NAME    = EARTH
REF_FRAME      = TEME
TIME_SYSTEM    = UTC
MEAN_ELEMENT_THEORY = SGP/SGP4

EPOCH          = 2025-12-09T04:35:08.103264
MEAN_MOTION    = 14.86549856
ECCENTRICITY   = .00190017
INCLINATION    = 82.5688
RA_OF_ASC_NODE = 226.0304
ARG_OF_PERICENTER = 239.6808
MEAN_ANOMALY   = 238.7982

EPHEMERIS_TYPE = 0
CLASSIFICATION_TYPE = U
NORAD_CAT_ID   = 13553
ELEMENT_SET_NO = 999
REV_AT_EPOCH   = 31548
BSTAR          = .81468718E-4
MEAN_MOTION_DOT = .748E-5
MEAN_MOTION_DDOT = 0

CCSDS_OMM_VERS = 2.0
CREATION_DATE  = 
ORIGINATOR     = 

OBJECT_NAME    = SL-3 R/B
OBJECT_ID      = 1983-010B
CENTER_NAME    = EARTH
REF_FRAME      = TEME
TIME_SYSTEM    = UTC
MEAN_ELEMENT_THEORY = SGP/SGP4

EPOCH          = 2025-12-09T01:50:13.118208
MEAN_MOTION    = 15.43304161
ECCENTRICITY   = .00173598
INCLINATION    = 81.1042
RA_OF_ASC_NODE = 113.0898
ARG_OF_PERICENTER = 3.9108
MEAN_ANOMALY   = 356.2267

EPHEMERIS_TYPE = 0
CLASSIFICATION_TYPE = U
NORAD_CAT_ID   = 13819
ELEMENT_SET_NO = 999
REV_AT_EPOCH   = 34395
BSTAR          = .37311062E-3
MEAN_MOTION_DOT = .16743E-3
MEAN_MOTION_DDOT = 0

CCSDS_OMM_VERS = 2.0
CREATION_DATE  = 
ORIGINATOR     = 

OBJECT_NAME    = SL-3 R/B
OBJECT_ID      = 1983-075B
CENTER_NAME    = EARTH
REF_FRAME      = TEME
TIME_SYSTEM    = UTC
MEAN_ELEMENT_THEORY = SGP/SGP4

EPOCH          = 2025-12-09T04:54:22.244832
MEAN_MOTION    = 15.36023692
ECCENTRICITY   = .00223488
INCLINATION    = 97.6108
RA_OF_ASC_NODE = 339.5692
ARG_OF_PERICENTER = 188.0668
MEAN_ANOMALY   = 172.0219

EPHEMERIS_TYPE = 0
CLASSIFICATION_TYPE = U
NORAD_CAT_ID   = 14208
ELEMENT_SET_NO = 999
REV_AT_EPOCH   = 31625
BSTAR          = .38700935E-3
MEAN_MOTION_DOT = .13609E-3
MEAN_MOTION_DDOT = 0

CCSDS_OMM_VERS = 2.0
CREATION_DATE  = 
ORIGINATOR     = 

OBJECT_NAME    = COSMOS 1536
OBJECT_ID      = 1984-013A
CENTER_NAME    = EARTH
REF_FRAME      = TEME
TIME_SYSTEM    = UTC
MEAN_ELEMENT_THEORY = SGP/SGP4

EPOCH          = 2025-12-09T01:26:29.483808
MEAN_MOTION    = 15.22455565
ECCENTRICITY   = .00133679
INCLINATION    = 82.5455
RA_OF_ASC_NODE = 197.8137
ARG_OF_PERICENTER = 239.9466
MEAN_ANOMALY   = 120.0445

EPHEMERIS_TYPE = 0
CLASSIFICATION_TYPE = U
NORAD_CAT_ID   = 14699
ELEMENT_SET_NO = 999
REV_AT_EPOCH   = 25882
BSTAR          = .30180322E-3
MEAN_MOTION_DOT = .703E-4
MEAN_MOTION_DDOT = 0

CCSDS_OMM_VERS = 2.0
CREATION_DATE  = 
ORIGINATOR     = 

OBJECT_NAME    = SL-14 R/B
OBJECT_ID      = 1984-027B
CENTER_NAME    = EARTH
REF_FRAME      = TEME
TIME_SYSTEM    = UTC
MEAN_ELEMENT_THEORY = SGP/SGP4

EPOCH          = 2025-12-09T06:08:16.940832
MEAN_MOTION    = 14.85869076
ECCENTRICITY   = .00163852
INCLINATION    = 82.5410
RA_OF_ASC_NODE = 329.8237
ARG_OF_PERICENTER = 273.4802
MEAN_ANOMALY   = 86.4540

EPHEMERIS_TYPE = 0
CLASSIFICATION_TYPE = U
NORAD_CAT_ID   = 14820
ELEMENT_SET_NO = 999
REV_AT_EPOCH   = 23420
BSTAR          = .10969428E-3
MEAN_MOTION_DOT = .981E-5
MEAN_MOTION_DDOT = 0

CCSDS_OMM_VERS = 2.0
CREATION_DATE  = 
ORIGINATOR     = 

OBJECT_NAME    = SL-8 R/B
OBJECT_ID      = 1985-006B
CENTER_NAME    = EARTH
REF_FRAME      = TEME
TIME_SYSTEM    = UTC
MEAN_ELEMENT_THEORY = SGP/SGP4

EPOCH          = 2025-12-09T06:31:43.806720
MEAN_MOTION    = 14.37718384
ECCENTRICITY   = .00185292
INCLINATION    = 74.0466
RA_OF_ASC_NODE = 67.5147
ARG_OF_PERICENTER = 0.6277
MEAN_ANOMALY   = 59.5302

EPHEMERIS_TYPE = 0
CLASSIFICATION_TYPE = U
NORAD_CAT_ID   = 15483
ELEMENT_SET_NO = 999
REV_AT_EPOCH   = 14103
BSTAR          = .17278798E-3
MEAN_MOTION_DOT = .494E-5
MEAN_MOTION_DDOT = 0

CCSDS_OMM_VERS = 2.0
CREATION_DATE  = 
ORIGINATOR     = 

OBJECT_NAME    = SL-12 R/B(2)
OBJECT_ID      = 1985-042D
CENTER_NAME    = EARTH
REF_FRAME      = TEME
TIME_SYSTEM    = UTC
MEAN_ELEMENT_THEORY = SGP/SGP4

EPOCH          = 2025-12-09T07:25:33.176928
MEAN_MOTION    = 14.21950538
ECCENTRICITY   = .00376778
INCLINATION    = 71.1086
RA_OF_ASC_NODE = 278.6666
ARG_OF_PERICENTER = 266.5572
MEAN_ANOMALY   = 208.3200

EPHEMERIS_TYPE = 0
CLASSIFICATION_TYPE = U
NORAD_CAT_ID   = 15772
ELEMENT_SET_NO = 999
REV_AT_EPOCH   = 10154
BSTAR          = .16236035E-3
MEAN_MOTION_DOT = .313E-5
MEAN_MOTION_DDOT = 0

CCSDS_OMM_VERS = 2.0
CREATION_DATE  = 
ORIGINATOR     = 

OBJECT_NAME    = SL-14 R/B
OBJECT_ID      = 1985-069B
CENTER_NAME    = EARTH
REF_FRAME      = TEME
TIME_SYSTEM    = UTC
MEAN_ELEMENT_THEORY = SGP/SGP4

EPOCH          = 2025-12-09T01:35:10.392864
MEAN_MOTION    = 14.86317253
ECCENTRICITY   = .00199594
INCLINATION    = 82.5264
RA_OF_ASC_NODE = 110.1563
ARG_OF_PERICENTER = 129.9088
MEAN_ANOMALY   = 230.3887

EPHEMERIS_TYPE = 0
CLASSIFICATION_TYPE = U
NORAD_CAT_ID   = 15945
ELEMENT_SET_NO = 999
REV_AT_EPOCH   = 15937
BSTAR          = .1044217E-3
MEAN_MOTION_DOT = .947E-5
MEAN_MOTION_DDOT = 0

CCSDS_OMM_VERS = 2.0
CREATION_DATE  = 
ORIGINATOR     = 

OBJECT_NAME    = SL-16 R/B
OBJECT_ID      = 1985-097B
CENTER_NAME    = EARTH
REF_FRAME      = TEME
TIME_SYSTEM    = UTC
MEAN_ELEMENT_THEORY = SGP/SGP4

EPOCH          = 2025-12-09T07:50:41.055648
MEAN_MOTION    = 14.16582234
ECCENTRICITY   = .00064645
INCLINATION    = 71.0030
RA_OF_ASC_NODE = 330.7883
ARG_OF_PERICENTER = 16.3240
MEAN_ANOMALY   = 82.6145

EPHEMERIS_TYPE = 0
CLASSIFICATION_TYPE = U
NORAD_CAT_ID   = 16182
ELEMENT_SET_NO = 999
REV_AT_EPOCH   = 7443
BSTAR          = .10082948E-3
MEAN_MOTION_DOT = .153E-5
MEAN_MOTION_DDOT = 0

CCSDS_OMM_VERS = 2.0
CREATION_DATE  = 
ORIGINATOR     = 

OBJECT_NAME    = SL-14 R/B
OBJECT_ID      = 1986-006B
CENTER_NAME    = EARTH
REF_FRAME      = TEME
TIME_SYSTEM    = UTC
MEAN_ELEMENT_THEORY = SGP/SGP4

EPOCH          = 2025-12-09T06:24:53.986464
MEAN_MOTION    = 14.86665322
ECCENTRICITY   = .00758819
INCLINATION    = 82.5264
RA_OF_ASC_NODE = 344.8189
ARG_OF_PERICENTER = 211.4454
MEAN_ANOMALY   = 148.2216

EPHEMERIS_TYPE = 0
CLASSIFICATION_TYPE = U
NORAD_CAT_ID   = 16496
ELEMENT_SET_NO = 999
REV_AT_EPOCH   = 13577
BSTAR          = .12248204E-3
MEAN_MOTION_DOT = .1172E-4
MEAN_MOTION_DDOT = 0

CCSDS_OMM_VERS = 2.0
CREATION_DATE  = 
ORIGINATOR     = 

OBJECT_NAME    = COSMOS 1743
OBJECT_ID      = 1986-034A
CENTER_NAME    = EARTH
REF_FRAME      = TEME
TIME_SYSTEM    = UTC
MEAN_ELEMENT_THEORY = SGP/SGP4

EPOCH          = 2025-12-09T05:41:37.485888
MEAN_MOTION    = 15.51868676
ECCENTRICITY   = .00046777
INCLINATION    = 82.5347
RA_OF_ASC_NODE = 168.2291
ARG_OF_PERICENTER = 269.0451
MEAN_ANOMALY   = 91.0265

EPHEMERIS_TYPE = 0
CLASSIFICATION_TYPE = U
NORAD_CAT_ID   = 16719
ELEMENT_SET_NO = 999
REV_AT_EPOCH   = 16619
BSTAR          = .58343746E-3
MEAN_MOTION_DOT = .35069E-3
MEAN_MOTION_DDOT = 0

